start=new Date('2022-10-16T00:00:00.000Z').valueOf();
sats=[{"ECCENTRICITY":"0.00023450","PERIOD":"95.436","CLASSIFICATION_TYPE":"U","APOAPSIS":"541.275","EPHEMERIS_TYPE":"0","SEMIMAJOR_AXIS":"6917.788","RA_OF_ASC_NODE":"10.3663","MEAN_ANOMALY":"330.8119","FILE":"3615679","SITE":"AFETR","MEAN_MOTION_DOT":"-0.00006049","ARG_OF_PERICENTER":"29.3005","EPOCH":"2022-10-15T15:33:10.527264","NORAD_CAT_ID":"52340","BSTAR":"-0.00036192000000","MEAN_MOTION_DDOT":"0.0000000000000","OBJECT_ID":"2022-045K","ELEMENT_SET_NO":"999","INCLINATION":"53.2194","MEAN_ELEMENT_THEORY":"SGP4","MEAN_MOTION":"15.08870318","GP_ID":"215249417","OBJECT_TYPE":"PAYLOAD","LAUNCH_DATE":"2022-04-29","CENTER_NAME":"EARTH","RCS_SIZE":"LARGE","REV_AT_EPOCH":"2841","DECAY_DATE":null,"TLE_LINE2":"2 52340  53.2194  10.3663 0002345  29.3005 330.8119 15.08870318 28413","REF_FRAME":"TEME","TLE_LINE1":"1 52340U 22045K   22288.64803851 -.00006049  00000-0 -36192-3 0  9999","OBJECT_NAME":"STARLINK-3818","PERIAPSIS":"538.030","TIME_SYSTEM":"UTC","COUNTRY_CODE":"US"},{"COUNTRY_CODE":"US","TIME_SYSTEM":"UTC","PERIAPSIS":"537.857","OBJECT_NAME":"STARLINK-3843","TLE_LINE1":"1 52341U 22045L   22288.62230965 -.00012906  00000-0 -79295-3 0  9998","DECAY_DATE":null,"REV_AT_EPOCH":"2828","REF_FRAME":"TEME","TLE_LINE2":"2 52341  53.2192  20.4992 0002482  16.5454 343.5618 15.08896021 28286","RCS_SIZE":"LARGE","CENTER_NAME":"EARTH","LAUNCH_DATE":"2022-04-29","OBJECT_TYPE":"PAYLOAD","MEAN_MOTION":"15.08896021","GP_ID":"215249668","MEAN_ELEMENT_THEORY":"SGP4","INCLINATION":"53.2192","ELEMENT_SET_NO":"999","OBJECT_ID":"2022-045L","NORAD_CAT_ID":"52341","MEAN_MOTION_DDOT":"0.0000000000000","BSTAR":"-0.00079295000000","EPOCH":"2022-10-15T14:56:07.553760","MEAN_MOTION_DOT":"-0.00012906","ARG_OF_PERICENTER":"16.5454","SITE":"AFETR","FILE":"3615679","RA_OF_ASC_NODE":"20.4992","MEAN_ANOMALY":"343.5618","EPHEMERIS_TYPE":"0","SEMIMAJOR_AXIS":"6917.709","APOAPSIS":"541.291","PERIOD":"95.434","CLASSIFICATION_TYPE":"U","ECCENTRICITY":"0.00024820"},{"SEMIMAJOR_AXIS":"6917.823","EPHEMERIS_TYPE":"0","MEAN_ANOMALY":"325.9866","RA_OF_ASC_NODE":"10.3999","FILE":"3615679","PERIOD":"95.436","CLASSIFICATION_TYPE":"U","ECCENTRICITY":"0.00024750","APOAPSIS":"541.400","EPOCH":"2022-10-15T15:22:35.458752","SITE":"AFETR","ARG_OF_PERICENTER":"34.1285","MEAN_MOTION_DOT":"0.00003808","INCLINATION":"53.2175","MEAN_ELEMENT_THEORY":"SGP4","GP_ID":"215248416","MEAN_MOTION":"15.08858874","BSTAR":"0.00025711000000","MEAN_MOTION_DDOT":"0.0000000000000","NORAD_CAT_ID":"52342","OBJECT_ID":"2022-045M","ELEMENT_SET_NO":"999","REF_FRAME":"TEME","TLE_LINE2":"2 52342  53.2175  10.3999 0002475  34.1285 325.9866 15.08858874 28422","DECAY_DATE":null,"REV_AT_EPOCH":"2842","OBJECT_NAME":"STARLINK-3850","TLE_LINE1":"1 52342U 22045M   22288.64068818  .00003808  00000-0  25711-3 0  9990","PERIAPSIS":"537.976","TIME_SYSTEM":"UTC","COUNTRY_CODE":"US","OBJECT_TYPE":"PAYLOAD","LAUNCH_DATE":"2022-04-29","CENTER_NAME":"EARTH","RCS_SIZE":"LARGE"},{"PERIOD":"95.437","CLASSIFICATION_TYPE":"U","ECCENTRICITY":"0.00024810","APOAPSIS":"541.454","MEAN_ANOMALY":"329.3221","RA_OF_ASC_NODE":"20.3436","FILE":"3615679","SEMIMAJOR_AXIS":"6917.873","EPHEMERIS_TYPE":"0","ARG_OF_PERICENTER":"30.7917","MEAN_MOTION_DOT":"-0.00000038","SITE":"AFETR","EPOCH":"2022-10-15T15:42:28.329984","OBJECT_ID":"2022-045N","ELEMENT_SET_NO":"999","BSTAR":"0.00001570400000","MEAN_MOTION_DDOT":"0.0000000000000","NORAD_CAT_ID":"52343","GP_ID":"215248666","MEAN_MOTION":"15.08842500","INCLINATION":"53.2195","MEAN_ELEMENT_THEORY":"SGP4","RCS_SIZE":"LARGE","CENTER_NAME":"EARTH","OBJECT_TYPE":"PAYLOAD","LAUNCH_DATE":"2022-04-29","PERIAPSIS":"538.021","TIME_SYSTEM":"UTC","COUNTRY_CODE":"US","TLE_LINE2":"2 52343  53.2195  20.3436 0002481  30.7917 329.3221 15.08842500 28290","REF_FRAME":"TEME","REV_AT_EPOCH":"2829","DECAY_DATE":null,"OBJECT_NAME":"STARLINK-3849","TLE_LINE1":"1 52343U 22045N   22288.65449456 -.00000038  00000-0  15704-4 0  9998"},{"ELEMENT_SET_NO":"999","OBJECT_ID":"2022-045P","NORAD_CAT_ID":"52344","MEAN_MOTION_DDOT":"0.0000000000000","BSTAR":"0.00051664000000","MEAN_MOTION":"15.08882376","GP_ID":"215248917","MEAN_ELEMENT_THEORY":"SGP4","INCLINATION":"53.2160","RCS_SIZE":"LARGE","CENTER_NAME":"EARTH","LAUNCH_DATE":"2022-04-29","OBJECT_TYPE":"PAYLOAD","COUNTRY_CODE":"US","PERIAPSIS":"537.664","TIME_SYSTEM":"UTC","TLE_LINE1":"1 52344U 22045P   22288.63427908  .00007953  00000-0  51664-3 0  9991","OBJECT_NAME":"STARLINK-3851","REV_AT_EPOCH":"2842","DECAY_DATE":null,"TLE_LINE2":"2 52344  53.2160  10.4386 0002821  32.6455 327.4711 15.08882376 28426","REF_FRAME":"TEME","APOAPSIS":"541.567","PERIOD":"95.435","ECCENTRICITY":"0.00028210","CLASSIFICATION_TYPE":"U","FILE":"3615679","RA_OF_ASC_NODE":"10.4386","MEAN_ANOMALY":"327.4711","EPHEMERIS_TYPE":"0","SEMIMAJOR_AXIS":"6917.751","MEAN_MOTION_DOT":"0.00007953","ARG_OF_PERICENTER":"32.6455","SITE":"AFETR","EPOCH":"2022-10-15T15:13:21.712512"},{"OBJECT_ID":"2022-045Q","ELEMENT_SET_NO":"999","MEAN_MOTION_DDOT":"0.0000000000000","BSTAR":"-0.00003374600000","NORAD_CAT_ID":"52345","GP_ID":"215249168","MEAN_MOTION":"15.08826241","INCLINATION":"53.2194","MEAN_ELEMENT_THEORY":"SGP4","RCS_SIZE":"LARGE","CENTER_NAME":"EARTH","OBJECT_TYPE":"PAYLOAD","LAUNCH_DATE":"2022-04-29","TIME_SYSTEM":"UTC","PERIAPSIS":"538.432","COUNTRY_CODE":"US","TLE_LINE2":"2 52345  53.2194  10.6494 0001959  32.9966 327.1148 15.08826241 28405","REF_FRAME":"TEME","REV_AT_EPOCH":"2840","DECAY_DATE":null,"OBJECT_NAME":"STARLINK-3852","TLE_LINE1":"1 52345U 22045Q   22288.58550952 -.00000825  00000-0 -33746-4 0  9997","PERIOD":"95.438","CLASSIFICATION_TYPE":"U","ECCENTRICITY":"0.00019590","APOAPSIS":"541.143","MEAN_ANOMALY":"327.1148","RA_OF_ASC_NODE":"10.6494","FILE":"3615679","SEMIMAJOR_AXIS":"6917.922","EPHEMERIS_TYPE":"0","ARG_OF_PERICENTER":"32.9966","MEAN_MOTION_DOT":"-0.00000825","SITE":"AFETR","EPOCH":"2022-10-15T14:03:08.022528"},{"ARG_OF_PERICENTER":"33.1672","MEAN_MOTION_DOT":"0.00002809","SITE":"AFETR","EPOCH":"2022-10-15T16:47:23.240256","PERIOD":"95.437","CLASSIFICATION_TYPE":"U","ECCENTRICITY":"0.00022810","APOAPSIS":"541.307","MEAN_ANOMALY":"326.9463","RA_OF_ASC_NODE":"10.1417","FILE":"3615679","SEMIMAJOR_AXIS":"6917.864","EPHEMERIS_TYPE":"0","RCS_SIZE":"LARGE","CENTER_NAME":"EARTH","OBJECT_TYPE":"PAYLOAD","LAUNCH_DATE":"2022-04-29","PERIAPSIS":"538.151","TIME_SYSTEM":"UTC","COUNTRY_CODE":"US","REF_FRAME":"TEME","TLE_LINE2":"2 52346  53.2172  10.1417 0002281  33.1672 326.9463 15.08845288 28430","DECAY_DATE":null,"REV_AT_EPOCH":"2843","OBJECT_NAME":"STARLINK-3812","TLE_LINE1":"1 52346U 22045R   22288.69957454  .00002809  00000-0  19450-3 0  9995","OBJECT_ID":"2022-045R","ELEMENT_SET_NO":"999","MEAN_MOTION_DDOT":"0.0000000000000","BSTAR":"0.00019450000000","NORAD_CAT_ID":"52346","GP_ID":"215247916","MEAN_MOTION":"15.08845288","INCLINATION":"53.2172","MEAN_ELEMENT_THEORY":"SGP4"},{"OBJECT_ID":"2022-045S","ELEMENT_SET_NO":"999","NORAD_CAT_ID":"52347","MEAN_MOTION_DDOT":"0.0000000000000","BSTAR":"-0.00004212700000","MEAN_MOTION":"15.08834697","GP_ID":"215248166","INCLINATION":"53.2201","MEAN_ELEMENT_THEORY":"SGP4","RCS_SIZE":"LARGE","CENTER_NAME":"EARTH","OBJECT_TYPE":"PAYLOAD","LAUNCH_DATE":"2022-04-29","TIME_SYSTEM":"UTC","PERIAPSIS":"538.184","COUNTRY_CODE":"US","DECAY_DATE":null,"REV_AT_EPOCH":"2842","REF_FRAME":"TEME","TLE_LINE2":"2 52347  53.2201  10.3883 0002280  32.3934 327.7197 15.08834697 28428","TLE_LINE1":"1 52347U 22045S   22288.64438352 -.00000959  00000-0 -42127-4 0  9996","OBJECT_NAME":"STARLINK-3826","CLASSIFICATION_TYPE":"U","PERIOD":"95.438","ECCENTRICITY":"0.00022800","APOAPSIS":"541.339","RA_OF_ASC_NODE":"10.3883","MEAN_ANOMALY":"327.7197","FILE":"3615679","EPHEMERIS_TYPE":"0","SEMIMAJOR_AXIS":"6917.897","MEAN_MOTION_DOT":"-0.00000959","ARG_OF_PERICENTER":"32.3934","SITE":"AFETR","EPOCH":"2022-10-15T15:27:54.736128"},{"RCS_SIZE":"LARGE","CENTER_NAME":"EARTH","LAUNCH_DATE":"2022-04-29","OBJECT_TYPE":"PAYLOAD","COUNTRY_CODE":"US","PERIAPSIS":"537.999","TIME_SYSTEM":"UTC","OBJECT_NAME":"STARLINK-3829","TLE_LINE1":"1 52348U 22045T   22288.62597393 -.00001239  00000-0 -59748-4 0  9995","REF_FRAME":"TEME","TLE_LINE2":"2 52348  53.2184  10.4872 0002515  29.3439 330.7694 15.08842118 28428","REV_AT_EPOCH":"2842","DECAY_DATE":null,"ELEMENT_SET_NO":"999","OBJECT_ID":"2022-045T","MEAN_MOTION_DDOT":"0.0000000000000","BSTAR":"-0.00005974800000","NORAD_CAT_ID":"52348","GP_ID":"215249418","MEAN_MOTION":"15.08842118","MEAN_ELEMENT_THEORY":"SGP4","INCLINATION":"53.2184","ARG_OF_PERICENTER":"29.3439","MEAN_MOTION_DOT":"-0.00001239","SITE":"AFETR","EPOCH":"2022-10-15T15:01:24.147552","APOAPSIS":"541.479","PERIOD":"95.437","CLASSIFICATION_TYPE":"U","ECCENTRICITY":"0.00025150","FILE":"3615679","MEAN_ANOMALY":"330.7694","RA_OF_ASC_NODE":"10.4872","SEMIMAJOR_AXIS":"6917.874","EPHEMERIS_TYPE":"0"},{"INCLINATION":"53.2179","MEAN_ELEMENT_THEORY":"SGP4","GP_ID":"215249669","MEAN_MOTION":"15.08852755","BSTAR":"0.00004192700000","MEAN_MOTION_DDOT":"0.0000000000000","NORAD_CAT_ID":"52349","OBJECT_ID":"2022-045U","ELEMENT_SET_NO":"999","TLE_LINE2":"2 52349  53.2179  10.1238 0002738  23.3125 336.7991 15.08852755 28434","REF_FRAME":"TEME","DECAY_DATE":null,"REV_AT_EPOCH":"2843","TLE_LINE1":"1 52349U 22045U   22288.70324374  .00000379  00000-0  41927-4 0  9994","OBJECT_NAME":"STARLINK-3819","TIME_SYSTEM":"UTC","PERIAPSIS":"537.812","COUNTRY_CODE":"US","OBJECT_TYPE":"PAYLOAD","LAUNCH_DATE":"2022-04-29","RCS_SIZE":"LARGE","CENTER_NAME":"EARTH","SEMIMAJOR_AXIS":"6917.841","EPHEMERIS_TYPE":"0","MEAN_ANOMALY":"336.7991","RA_OF_ASC_NODE":"10.1238","FILE":"3615679","PERIOD":"95.437","CLASSIFICATION_TYPE":"U","ECCENTRICITY":"0.00027380","APOAPSIS":"541.601","EPOCH":"2022-10-15T16:52:40.259136","SITE":"AFETR","ARG_OF_PERICENTER":"23.3125","MEAN_MOTION_DOT":"0.00000379"}];
